NORAD_CAT_ID,OBJECT_NAME,OBJECT_TYPE,EPOCH,MEAN_MOTION,ECCENTRICITY,INCLINATION,RA_OF_ASC_NODE,ARG_OF_PERICENTER,MEAN_ANOMALY,BSTAR,MEAN_MOTION_DOT,MEAN_MOTION_DDOT,TLE_LINE0,TLE_LINE1,TLE_LINE2,SEMIMAJOR_AXIS,PERIOD,APOGEE,PERIGEE,DECAYED
54768.0,STARLINK-5444,PAYLOAD,2024-01-30 20:07:40,15.0884748,0.0001043,53.2154,241.0137,92.3398,267.7714,-1.4643e-05,-5.21e-06,0.0,0 STARLINK-5444,1 54768U 22175L   24030.83866363 -.00000521  00000-0 -14643-4 0  9991,2 54768  53.2154 241.0137 0001043  92.3398 267.7714 15.08847480 61895,6917.858,95.437,540.444,539.001,0.0
54768.0,STARLINK-5444,PAYLOAD,2024-01-30 21:43:03,15.08846214,9.68e-05,53.2148,240.7168,95.8898,264.2204,-4.1422e-05,-9.47e-06,0.0,0 STARLINK-5444,1 54768U 22175L   24030.90490307 -.00000947  00000-0 -41422-4 0  9997,2 54768  53.2148 240.7168 0000968  95.8898 264.2204 15.08846214 64068,6917.861,95.437,540.396,539.057,0.0
54768.0,STARLINK-5444,PAYLOAD,2024-02-01 13:27:42,15.08841588,9.37e-05,53.2158,233.2809,97.8182,262.2916,3.9332e-05,3.38e-06,0.0,0 STARLINK-5444,1 54768U 22175L   24032.56090453  .00000338  00000-0  39332-4 0  9998,2 54768  53.2158 233.2809 0000937  97.8182 262.2916 15.08841588 64317,6917.876,95.437,540.389,539.092,0.0
54768.0,STARLINK-5444,PAYLOAD,2024-02-01 18:13:51,15.08843256,0.0001195,53.2156,232.392,68.3912,291.7207,0.00010281,1.349e-05,0.0,0 STARLINK-5444,1 54768U 22175L   24032.75962023  .00001349  00000-0  10281-3 0  9994,2 54768  53.2156 232.3920 0001195  68.3912 291.7207 15.08843256 62187,6917.87,95.437,540.562,538.909,0.0
54768.0,STARLINK-5444,PAYLOAD,2024-02-02 13:18:29,15.08843432,0.0001259,53.2161,228.822,67.0708,293.0417,5.3192e-05,5.59e-06,0.0,0 STARLINK-5444,1 54768U 22175L   24033.55450314  .00000559  00000-0  53192-4 0  9999,2 54768  53.2161 228.8220 0001259  67.0708 293.0417 15.08843432 64463,6917.87,95.437,540.606,538.864,0.0
54768.0,STARLINK-5444,PAYLOAD,2024-02-02 19:40:01,15.0884205,0.000119,53.2165,227.6294,91.9565,268.1564,-7.1872e-06,-4.02e-06,0.0,0 STARLINK-5444,1 54768U 22175L   24033.81946334 -.00000402  00000-0 -71872-5 0  9995,2 54768  53.2165 227.6294 0001190  91.9565 268.1564 15.08842050 62342,6917.874,95.437,540.562,538.916,0.0
54768.0,STARLINK-5444,PAYLOAD,2024-02-03 13:09:16,15.08840761,0.0001204,53.2165,224.3584,90.5362,269.5768,-1.3688e-05,-5.06e-06,0.0,0 STARLINK-5444,1 54768U 22175L   24034.54810381 -.00000506  00000-0 -13688-4 0  9993,2 54768  53.2165 224.3584 0001204  90.5362 269.5768 15.08840761 64614,6917.878,95.438,540.576,538.91,0.0
54768.0,STARLINK-5444,PAYLOAD,2024-02-03 19:30:48,15.08841484,0.0001152,53.2162,223.1694,86.3206,273.7918,-9.5199e-06,-4.39e-06,0.0,0 STARLINK-5444,1 54768U 22175L   24034.81306277 -.00000439  00000-0 -95199-5 0  9990,2 54768  53.2162 223.1694 0001152  86.3206 273.7918 15.08841484 64653,6917.876,95.437,540.538,538.944,0.0
54768.0,STARLINK-5444,PAYLOAD,2024-02-04 11:24:39,15.08839016,0.0001144,53.2165,220.1963,87.4968,272.6155,6.0841e-05,6.81e-06,0.0,0 STARLINK-5444,1 54768U 22175L   24035.47546266  .00000681  00000-0  60841-4 0  9999,2 54768  53.2165 220.1963 0001144  87.4968 272.6155 15.08839016 62590,6917.883,95.438,540.54,538.957,0.0
54768.0,STARLINK-5444,PAYLOAD,2024-02-04 17:46:12,15.08840009,0.0001149,53.2166,219.0073,89.5578,270.5546,7.7187e-05,9.41e-06,0.0,0 STARLINK-5444,1 54768U 22175L   24035.74042166  .00000941  00000-0  77187-4 0  9999,2 54768  53.2166 219.0073 0001149  89.5578 270.5546 15.08840009 64794,6917.88,95.438,540.54,538.95,0.0
54768.0,STARLINK-5444,PAYLOAD,2024-02-05 04:53:54,15.088383,0.0001146,53.2165,216.9257,89.3476,270.7647,6.9612e-05,8.2e-06,0.0,0 STARLINK-5444,1 54768U 22175L   24036.20410361  .00000820  00000-0  69612-4 0  9997,2 54768  53.2165 216.9257 0001146  89.3476 270.7647 15.08838300 64868,6917.886,95.438,540.543,538.958,0.0
54768.0,STARLINK-5444,PAYLOAD,2024-02-05 19:12:23,15.08837274,0.0001181,53.2167,214.2497,90.5687,269.5441,4.7965e-05,4.76e-06,0.0,0 STARLINK-5444,1 54768U 22175L   24036.80026623  .00000476  00000-0  47965-4 0  9991,2 54768  53.2167 214.2497 0001181  90.5687 269.5441 15.08837274 62791,6917.889,95.438,540.571,538.937,0.0
54768.0,STARLINK-5444,PAYLOAD,2024-02-06 15:52:23,15.08839792,0.0001179,53.2168,210.3847,96.8032,263.3094,4.6957e-05,4.6e-06,0.0,0 STARLINK-5444,1 54768U 22175L   24037.66138516  .00000460  00000-0  46957-4 0  9994,2 54768  53.2168 210.3847 0001179  96.8032 263.3094 15.08839792 65086,6917.881,95.438,540.562,538.93,0.0
54768.0,STARLINK-5444,PAYLOAD,2024-02-07 10:57:01,15.08838524,0.0001237,53.2171,206.8145,88.7355,271.3779,7.0775e-05,8.39e-06,0.0,0 STARLINK-5444,1 54768U 22175L   24038.45626631  .00000839  00000-0  70775-4 0  9997,2 54768  53.2171 206.8145 0001237  88.7355 271.3779 15.08838524 63049,6917.885,95.438,540.606,538.894,0.0
54768.0,STARLINK-5444,PAYLOAD,2024-02-07 17:18:33,15.08839974,0.0001255,53.2172,205.625,87.2041,272.9095,7.7638e-05,9.48e-06,0.0,0 STARLINK-5444,1 54768U 22175L   24038.72122569  .00000948  00000-0  77638-4 0  9994,2 54768  53.2172 205.6250 0001255  87.2041 272.9095 15.08839974 65242,6917.88,95.438,540.614,538.877,0.0
54768.0,STARLINK-5444,PAYLOAD,2024-02-08 10:47:48,15.08838156,0.000131,53.2178,202.3555,84.5212,275.5929,2.9892e-05,1.88e-06,0.0,0 STARLINK-5444,1 54768U 22175L   24039.44986971  .00000188  00000-0  29892-4 0  9994,2 54768  53.2178 202.3555 0001310  84.5212 275.5929 15.08838156 65350,6917.886,95.438,540.657,538.845,0.0
54768.0,STARLINK-5444,PAYLOAD,2024-02-08 17:09:21,15.08838655,0.000133,53.2175,201.166,84.6156,275.4988,3.0034e-05,1.9e-06,0.0,0 STARLINK-5444,1 54768U 22175L   24039.71482951  .00000190  00000-0  30034-4 0  9996,2 54768  53.2175 201.1660 0001330  84.6156 275.4988 15.08838655 63234,6917.885,95.438,540.67,538.829,0.0
54768.0,STARLINK-5444,PAYLOAD,2024-02-09 13:49:21,15.08843656,0.0001329,53.2176,197.3004,84.4902,275.6242,8.8139e-05,1.115e-05,0.0,0 STARLINK-5444,1 54768U 22175L   24040.57594455  .00001115  00000-0  88139-4 0  9992,2 54768  53.2176 197.3004 0001329  84.4902 275.6242 15.08843656 65524,6917.869,95.437,540.654,538.815,0.0
54768.0,STARLINK-5444,PAYLOAD,2024-02-09 17:00:07,15.08845674,0.0001352,53.2174,196.7055,84.6315,275.4832,0.00010419,1.371e-05,0.0,0 STARLINK-5444,1 54768U 22175L   24040.70842269  .00001371  00000-0  10419-3 0  9995,2 54768  53.2174 196.7055 0001352  84.6315 275.4832 15.08845674 63384,6917.863,95.437,540.663,538.793,0.0
54768.0,STARLINK-5444,PAYLOAD,2024-02-10 10:29:23,15.0883561,0.0001492,53.2175,193.4354,78.2198,281.8961,5.307e-05,5.57e-06,0.0,0 STARLINK-5444,1 54768U 22175L   24041.43707208  .00000557  00000-0  53070-4 0  9995,2 54768  53.2175 193.4354 0001492  78.2198 281.8961 15.08835610 63499,6917.894,95.438,540.791,538.727,0.0
54768.0,STARLINK-5444,PAYLOAD,2024-02-10 13:40:09,15.08834701,0.0001405,53.2174,192.8399,83.6626,276.4526,3.9407e-05,3.39e-06,0.0,0 STARLINK-5444,1 54768U 22175L   24041.56955322  .00000339  00000-0  39407-4 0  9997,2 54768  53.2174 192.8399 0001405  83.6626 276.4526 15.08834701 65679,6917.897,95.438,540.734,538.79,0.0
54768.0,STARLINK-5444,PAYLOAD,2024-02-10 16:50:55,15.08835238,0.0001389,53.2182,192.2459,93.4066,266.7085,3.1485e-05,2.13e-06,0.0,0 STARLINK-5444,1 54768U 22175L   24041.70203293  .00000213  00000-0  31485-4 0  9995,2 54768  53.2182 192.2459 0001389  93.4066 266.7085 15.08835238 65697,6917.895,95.438,540.721,538.799,0.0
54768.0,STARLINK-5444,PAYLOAD,2024-02-11 13:30:55,15.08843598,0.0001421,53.2182,188.3813,97.5417,262.5737,4.534e-05,4.34e-06,0.0,0 STARLINK-5444,1 54768U 22175L   24042.56314789  .00000434  00000-0  45340-4 0  9993,2 54768  53.2182 188.3813 0001421  97.5417 262.5737 15.08843598 65820,6917.869,95.437,540.717,538.751,0.0
54768.0,STARLINK-5444,PAYLOAD,2024-02-11 15:06:19,15.08844853,0.0001413,53.218,188.084,93.804,266.3114,5.5883e-05,6.02e-06,0.0,0 STARLINK-5444,1 54768U 22175L   24042.62938677  .00000602  00000-0  55883-4 0  9998,2 54768  53.2180 188.0840 0001413  93.8040 266.3114 15.08844853 63674,6917.866,95.437,540.708,538.753,0.0
54768.0,STARLINK-5444,PAYLOAD,2024-02-12 10:10:57,15.08831386,0.0001343,53.2173,184.5123,87.2964,272.8182,3.598e-05,2.85e-06,0.0,0 STARLINK-5444,1 54768U 22175L   24043.42427796  .00000285  00000-0  35980-4 0  9995,2 54768  53.2173 184.5123 0001343  87.2964 272.8182 15.08831386 63792,6917.907,95.438,540.701,538.843,0.0
54768.0,STARLINK-5444,PAYLOAD,2024-02-12 14:57:06,15.0883753,0.0001324,53.2172,183.6197,83.151,276.9633,8.582e-05,1.078e-05,0.0,0 STARLINK-5444,1 54768U 22175L   24043.62299366  .00001078  00000-0  85820-4 0  9996,2 54768  53.2172 183.6197 0001324  83.1510 276.9633 15.08837530 65989,6917.888,95.438,540.669,538.837,0.0
54768.0,STARLINK-5444,PAYLOAD,2024-02-13 14:47:53,15.08841837,0.0001391,53.2177,179.1607,99.4795,260.6355,3.9595e-06,-2.25e-06,0.0,0 STARLINK-5444,1 54768U 22175L   24044.61659582 -.00000225  00000-0  39595-5 0  9999,2 54768  53.2177 179.1607 0001391  99.4795 260.6355 15.08841837 66133,6917.875,95.437,540.702,538.777,0.0
54768.0,STARLINK-5444,PAYLOAD,2024-02-13 17:58:39,15.08846992,0.0001332,53.2172,178.5642,84.3263,275.7881,5.6726e-05,6.15e-06,0.0,0 STARLINK-5444,1 54768U 22175L   24044.74907049  .00000615  00000-0  56726-4 0  9993,2 54768  53.2172 178.5642 0001332  84.3263 275.7881 15.08846992 63997,6917.859,95.437,540.645,538.803,0.0
54768.0,STARLINK-5444,PAYLOAD,2024-02-14 08:17:08,15.08833507,0.0001511,53.2175,175.8925,64.5164,295.5984,0.0001472,2.055e-05,0.0,0 STARLINK-5444,1 54768U 22175L   24045.34523882  .00002055  00000-0  14720-3 0  9996,2 54768  53.2175 175.8925 0001511  64.5164 295.5984 15.08833507 64086,6917.9,95.438,540.811,538.72,0.0
54768.0,STARLINK-5444,PAYLOAD,2024-02-14 14:38:40,15.08843429,0.0001229,53.217,174.7012,96.9141,263.1991,4.4813e-05,4.25e-06,0.0,0 STARLINK-5444,1 54768U 22175L   24045.61019362  .00000425  00000-0  44813-4 0  9995,2 54768  53.2170 174.7012 0001229  96.9141 263.1991 15.08843429 66283,6917.87,95.437,540.585,538.885,0.0
